start=new Date('2023-04-15T00:00:00.000Z').valueOf();
sats=[{"LAUNCH_DATE":"2022-10-28","MEAN_MOTION_DOT":"0.00005031","BSTAR":"0.00033383000000","TIME_SYSTEM":"UTC","REF_FRAME":"TEME","OBJECT_ID":"2022-141J","RA_OF_ASC_NODE":"94.4012","TLE_LINE1":"1 54165U 22141J   23104.29255798  .00005031  00000-0  33383-3 0  9990","ECCENTRICITY":"0.00012920","PERIOD":"95.437","APOAPSIS":"540.603","SEMIMAJOR_AXIS":"6917.844","OBJECT_NAME":"STARLINK-5279","ARG_OF_PERICENTER":"96.5551","CLASSIFICATION_TYPE":"U","MEAN_ANOMALY":"263.5588","COUNTRY_CODE":"US","SITE":"AFWTR","INCLINATION":"53.2152","GP_ID":"230060675","TLE_LINE2":"2 54165  53.2152  94.4012 0001292  96.5551 263.5588 15.08851752 25631","CENTER_NAME":"EARTH","OBJECT_TYPE":"PAYLOAD","MEAN_MOTION":"15.08851752","REV_AT_EPOCH":"2563","DECAY_DATE":null,"FILE":"3887333","PERIAPSIS":"538.816","ELEMENT_SET_NO":"999","MEAN_ELEMENT_THEORY":"SGP4","RCS_SIZE":"LARGE","MEAN_MOTION_DDOT":"0.0000000000000","EPHEMERIS_TYPE":"0","NORAD_CAT_ID":"54165","EPOCH":"2023-04-14T07:01:17.009472"},{"PERIOD":"95.437","APOAPSIS":"540.553","ARG_OF_PERICENTER":"91.1337","OBJECT_NAME":"STARLINK-5280","SEMIMAJOR_AXIS":"6917.852","TLE_LINE1":"1 54166U 22141K   23104.30453072  .00003503  00000-0  23798-3 0  9999","RA_OF_ASC_NODE":"84.5016","ECCENTRICITY":"0.00012090","SITE":"AFWTR","INCLINATION":"53.2166","CLASSIFICATION_TYPE":"U","MEAN_ANOMALY":"268.9794","COUNTRY_CODE":"US","MEAN_MOTION_DOT":"0.00003503","BSTAR":"0.00023798000000","LAUNCH_DATE":"2022-10-28","OBJECT_ID":"2022-141K","REF_FRAME":"TEME","TIME_SYSTEM":"UTC","RCS_SIZE":"LARGE","MEAN_ELEMENT_THEORY":"SGP4","ELEMENT_SET_NO":"999","PERIAPSIS":"538.881","EPHEMERIS_TYPE":"0","EPOCH":"2023-04-14T07:18:31.454208","NORAD_CAT_ID":"54166","MEAN_MOTION_DDOT":"0.0000000000000","TLE_LINE2":"2 54166  53.2166  84.5016 0001209  91.1337 268.9794 15.08849258 25773","CENTER_NAME":"EARTH","GP_ID":"230060926","FILE":"3887333","DECAY_DATE":null,"OBJECT_TYPE":"PAYLOAD","MEAN_MOTION":"15.08849258","REV_AT_EPOCH":"2577"},{"EPHEMERIS_TYPE":"0","NORAD_CAT_ID":"54167","EPOCH":"2023-04-14T06:30:49.577760","MEAN_MOTION_DDOT":"0.0000000000000","RCS_SIZE":"LARGE","MEAN_ELEMENT_THEORY":"SGP4","ELEMENT_SET_NO":"999","PERIAPSIS":"538.923","FILE":"3887333","DECAY_DATE":null,"MEAN_MOTION":"15.08837134","OBJECT_TYPE":"PAYLOAD","REV_AT_EPOCH":"2563","TLE_LINE2":"2 54167  53.2157  94.2717 0001201 103.4176 256.6950 15.08837134 25633","CENTER_NAME":"EARTH","GP_ID":"230061177","SITE":"AFWTR","INCLINATION":"53.2157","CLASSIFICATION_TYPE":"U","MEAN_ANOMALY":"256.6950","COUNTRY_CODE":"US","PERIOD":"95.438","APOAPSIS":"540.585","ARG_OF_PERICENTER":"103.4176","SEMIMAJOR_AXIS":"6917.889","OBJECT_NAME":"STARLINK-5243","TLE_LINE1":"1 54167U 22141L   23104.27140715  .00000766  00000-0  66222-4 0  9991","RA_OF_ASC_NODE":"94.2717","ECCENTRICITY":"0.00012010","OBJECT_ID":"2022-141L","REF_FRAME":"TEME","TIME_SYSTEM":"UTC","MEAN_MOTION_DOT":"0.00000766","BSTAR":"0.00006622200000","LAUNCH_DATE":"2022-10-28"},{"SITE":"AFWTR","INCLINATION":"53.2175","MEAN_ANOMALY":"268.9464","CLASSIFICATION_TYPE":"U","COUNTRY_CODE":"US","APOAPSIS":"540.584","PERIOD":"95.437","OBJECT_NAME":"STARLINK-5245","SEMIMAJOR_AXIS":"6917.860","ARG_OF_PERICENTER":"91.1670","RA_OF_ASC_NODE":"84.1822","TLE_LINE1":"1 54168U 22141M   23104.36708394  .00000784  00000-0  67347-4 0  9994","ECCENTRICITY":"0.00012420","REF_FRAME":"TEME","OBJECT_ID":"2022-141M","TIME_SYSTEM":"UTC","MEAN_MOTION_DOT":"0.00000784","BSTAR":"0.00006734700000","LAUNCH_DATE":"2022-10-28","EPHEMERIS_TYPE":"0","EPOCH":"2023-04-14T08:48:36.052416","NORAD_CAT_ID":"54168","MEAN_MOTION_DDOT":"0.0000000000000","MEAN_ELEMENT_THEORY":"SGP4","RCS_SIZE":"LARGE","PERIAPSIS":"538.866","ELEMENT_SET_NO":"999","DECAY_DATE":null,"FILE":"3887333","MEAN_MOTION":"15.08846624","OBJECT_TYPE":"PAYLOAD","REV_AT_EPOCH":"2578","TLE_LINE2":"2 54168  53.2175  84.1822 0001242  91.1670 268.9464 15.08846624 25782","CENTER_NAME":"EARTH","GP_ID":"230059925"},{"COUNTRY_CODE":"US","CLASSIFICATION_TYPE":"U","MEAN_ANOMALY":"259.8168","INCLINATION":"53.2173","SITE":"AFWTR","ECCENTRICITY":"0.00010900","TLE_LINE1":"1 54169U 22141N   23104.31550503  .00003175  00000-0  21747-3 0  9997","RA_OF_ASC_NODE":"83.8725","ARG_OF_PERICENTER":"100.2947","SEMIMAJOR_AXIS":"6917.869","OBJECT_NAME":"STARLINK-5282","PERIOD":"95.437","APOAPSIS":"540.488","TIME_SYSTEM":"UTC","OBJECT_ID":"2022-141N","REF_FRAME":"TEME","LAUNCH_DATE":"2022-10-28","MEAN_MOTION_DOT":"0.00003175","BSTAR":"0.00021747000000","MEAN_MOTION_DDOT":"0.0000000000000","NORAD_CAT_ID":"54169","EPOCH":"2023-04-14T07:34:19.634592","EPHEMERIS_TYPE":"0","ELEMENT_SET_NO":"999","PERIAPSIS":"538.980","RCS_SIZE":"LARGE","MEAN_ELEMENT_THEORY":"SGP4","REV_AT_EPOCH":"2578","MEAN_MOTION":"15.08843609","OBJECT_TYPE":"PAYLOAD","FILE":"3887333","DECAY_DATE":null,"GP_ID":"230060175","CENTER_NAME":"EARTH","TLE_LINE2":"2 54169  53.2173  83.8725 0001090 100.2947 259.8168 15.08843609 25789"},{"DECAY_DATE":null,"FILE":"3887333","OBJECT_TYPE":"PAYLOAD","MEAN_MOTION":"15.08848178","REV_AT_EPOCH":"2578","TLE_LINE2":"2 54170  53.2176  84.1611 0001274  97.1256 262.9881 15.08848178 25786","CENTER_NAME":"EARTH","GP_ID":"230061427","EPHEMERIS_TYPE":"0","EPOCH":"2023-04-14T08:43:18.058944","NORAD_CAT_ID":"54170","MEAN_MOTION_DDOT":"0.0000000000000","MEAN_ELEMENT_THEORY":"SGP4","RCS_SIZE":"LARGE","PERIAPSIS":"538.839","ELEMENT_SET_NO":"999","REF_FRAME":"TEME","OBJECT_ID":"2022-141P","TIME_SYSTEM":"UTC","MEAN_MOTION_DOT":"0.00003443","BSTAR":"0.00023428000000","LAUNCH_DATE":"2022-10-28","SITE":"AFWTR","INCLINATION":"53.2176","CLASSIFICATION_TYPE":"U","MEAN_ANOMALY":"262.9881","COUNTRY_CODE":"US","PERIOD":"95.437","APOAPSIS":"540.602","OBJECT_NAME":"STARLINK-5155","SEMIMAJOR_AXIS":"6917.855","ARG_OF_PERICENTER":"97.1256","RA_OF_ASC_NODE":"84.1611","TLE_LINE1":"1 54170U 22141P   23104.36340346  .00003443  00000-0  23428-3 0  9992","ECCENTRICITY":"0.00012740"},{"MEAN_MOTION":"15.08844985","OBJECT_TYPE":"PAYLOAD","REV_AT_EPOCH":"2570","FILE":"3887333","DECAY_DATE":null,"GP_ID":"230061678","TLE_LINE2":"2 54171  53.2176  89.2729 0001289  97.6183 262.4955 15.08844985 25704","CENTER_NAME":"EARTH","MEAN_MOTION_DDOT":"0.0000000000000","EPHEMERIS_TYPE":"0","NORAD_CAT_ID":"54171","EPOCH":"2023-04-14T06:28:49.910304","ELEMENT_SET_NO":"999","PERIAPSIS":"538.838","RCS_SIZE":"LARGE","MEAN_ELEMENT_THEORY":"SGP4","TIME_SYSTEM":"UTC","OBJECT_ID":"2022-141Q","REF_FRAME":"TEME","LAUNCH_DATE":"2022-10-28","MEAN_MOTION_DOT":"0.00001698","BSTAR":"0.00012472000000","CLASSIFICATION_TYPE":"U","MEAN_ANOMALY":"262.4955","COUNTRY_CODE":"US","SITE":"AFWTR","INCLINATION":"53.2176","TLE_LINE1":"1 54171U 22141Q   23104.27002211  .00001698  00000-0  12472-3 0  9996","RA_OF_ASC_NODE":"89.2729","ECCENTRICITY":"0.00012890","APOAPSIS":"540.622","PERIOD":"95.437","ARG_OF_PERICENTER":"97.6183","SEMIMAJOR_AXIS":"6917.865","OBJECT_NAME":"STARLINK-5229"},{"MEAN_MOTION_DDOT":"0.0000000000000","NORAD_CAT_ID":"54172","EPOCH":"2023-04-14T10:08:04.115040","EPHEMERIS_TYPE":"0","PERIAPSIS":"538.788","ELEMENT_SET_NO":"999","MEAN_ELEMENT_THEORY":"SGP4","RCS_SIZE":"LARGE","REV_AT_EPOCH":"2579","OBJECT_TYPE":"PAYLOAD","MEAN_MOTION":"15.08840311","DECAY_DATE":null,"FILE":"3887333","GP_ID":"230060426","CENTER_NAME":"EARTH","TLE_LINE2":"2 54172  53.2186  83.8189 0001383  98.8809 261.2340 15.08840311 25792","COUNTRY_CODE":"US","CLASSIFICATION_TYPE":"U","MEAN_ANOMALY":"261.2340","INCLINATION":"53.2186","SITE":"AFWTR","ECCENTRICITY":"0.00013830","RA_OF_ASC_NODE":"83.8189","TLE_LINE1":"1 54172U 22141R   23104.42226985  .00003732  00000-0  25243-3 0  9991","SEMIMAJOR_AXIS":"6917.879","OBJECT_NAME":"STARLINK-5117","ARG_OF_PERICENTER":"98.8809","APOAPSIS":"540.701","PERIOD":"95.438","TIME_SYSTEM":"UTC","REF_FRAME":"TEME","OBJECT_ID":"2022-141R","LAUNCH_DATE":"2022-10-28","MEAN_MOTION_DOT":"0.00003732","BSTAR":"0.00025243000000"},{"MEAN_ELEMENT_THEORY":"SGP4","RCS_SIZE":"LARGE","PERIAPSIS":"538.933","ELEMENT_SET_NO":"999","NORAD_CAT_ID":"54173","EPOCH":"2023-04-14T17:11:57.157728","EPHEMERIS_TYPE":"0","MEAN_MOTION_DDOT":"0.0000000000000","CENTER_NAME":"EARTH","TLE_LINE2":"2 54173  53.2173  82.1055 0001134  97.9565 262.1556 15.08849061 25842","GP_ID":"230063870","DECAY_DATE":null,"FILE":"3887416","REV_AT_EPOCH":"2584","MEAN_MOTION":"15.08849061","OBJECT_TYPE":"PAYLOAD","OBJECT_NAME":"STARLINK-5242","SEMIMAJOR_AXIS":"6917.853","ARG_OF_PERICENTER":"97.9565","APOAPSIS":"540.502","PERIOD":"95.437","ECCENTRICITY":"0.00011340","RA_OF_ASC_NODE":"82.1055","TLE_LINE1":"1 54173U 22141S   23104.71663377  .00000274  00000-0  35294-4 0  9990","INCLINATION":"53.2173","SITE":"AFWTR","COUNTRY_CODE":"US","MEAN_ANOMALY":"262.1556","CLASSIFICATION_TYPE":"U","MEAN_MOTION_DOT":"0.00000274","BSTAR":"0.00003529400000","LAUNCH_DATE":"2022-10-28","REF_FRAME":"TEME","OBJECT_ID":"2022-141S","TIME_SYSTEM":"UTC"},{"REV_AT_EPOCH":"2657","MEAN_MOTION":"15.48999698","OBJECT_TYPE":"PAYLOAD","DECAY_DATE":null,"FILE":"3887416","GP_ID":"230063867","CENTER_NAME":"EARTH","TLE_LINE2":"2 54174  53.2152  29.7130 0002658 131.7824 228.3413 15.48999698 26571","MEAN_MOTION_DDOT":"0.0000000000000","EPOCH":"2023-04-14T18:50:27.502656","NORAD_CAT_ID":"54174","EPHEMERIS_TYPE":"0","PERIAPSIS":"417.846","ELEMENT_SET_NO":"999","MEAN_ELEMENT_THEORY":"SGP4","RCS_SIZE":"LARGE","TIME_SYSTEM":"UTC","REF_FRAME":"TEME","OBJECT_ID":"2022-141T","LAUNCH_DATE":"2022-10-28","MEAN_MOTION_DOT":"-0.00102583","BSTAR":"-0.00188080000000","COUNTRY_CODE":"US","CLASSIFICATION_TYPE":"U","MEAN_ANOMALY":"228.3413","INCLINATION":"53.2152","SITE":"AFWTR","ECCENTRICITY":"0.00026580","RA_OF_ASC_NODE":"29.7130","TLE_LINE1":"1 54174U 22141T   23104.78504054 -.00102583  00000-0 -18808-2 0  9992","OBJECT_NAME":"STARLINK-5248","SEMIMAJOR_AXIS":"6797.788","ARG_OF_PERICENTER":"131.7824","APOAPSIS":"421.460","PERIOD":"92.963"}];
